[{"OBJECT_NAME":"DS-EO","OBJECT_ID":"2022-072A","EPOCH":"2026-03-09T23:09:32.454144","MEAN_MOTION":15.12980389,"ECCENTRICITY":0.00042856,"INCLINATION":9.9929,"RA_OF_ASC_NODE":205.6872,"ARG_OF_PERICENTER":305.4389,"MEAN_ANOMALY":54.5426,"EPHEMERIS_TYPE":0,"CLASSIFICATION_TYPE":"U","NORAD_CAT_ID":52935,"ELEMENT_SET_NO":999,"REV_AT_EPOCH":20345,"BSTAR":0.00030023735,"MEAN_MOTION_DOT":6.277e-5,"MEAN_MOTION_DDOT":0},{"OBJECT_NAME":"OBJECT B","OBJECT_ID":"2026-027B","EPOCH":"2026-03-09T21:35:20.668992","MEAN_MOTION":15.17815947,"ECCENTRICITY":0.00102981,"INCLINATION":97.4898,"RA_OF_ASC_NODE":197.9122,"ARG_OF_PERICENTER":196.2876,"MEAN_ANOMALY":163.8028,"EPHEMERIS_TYPE":0,"CLASSIFICATION_TYPE":"U","NORAD_CAT_ID":67747,"ELEMENT_SET_NO":999,"REV_AT_EPOCH":389,"BSTAR":0.00052180304,"MEAN_MOTION_DOT":0.00010507,"MEAN_MOTION_DDOT":0}]
